[{"OBJECT_NAME":"GHGSAT-C5","OBJECT_ID":"2022-057N","EPOCH":"2026-03-09T21:50:12.501024","MEAN_MOTION":15.32921902,"ECCENTRICITY":0.00082696,"INCLINATION":97.6522,"RA_OF_ASC_NODE":212.4963,"ARG_OF_PERICENTER":109.8004,"MEAN_ANOMALY":250.413,"EPHEMERIS_TYPE":0,"CLASSIFICATION_TYPE":"U","NORAD_CAT_ID":52744,"ELEMENT_SET_NO":999,"REV_AT_EPOCH":21032,"BSTAR":0.00029214604,"MEAN_MOTION_DOT":9.218e-5,"MEAN_MOTION_DDOT":0},{"OBJECT_NAME":"STARLINK-31990","OBJECT_ID":"2024-111J","EPOCH":"2026-03-09T10:13:51.253824","MEAN_MOTION":15.30198254,"ECCENTRICITY":0.00013152,"INCLINATION":53.1603,"RA_OF_ASC_NODE":76.8141,"ARG_OF_PERICENTER":79.9686,"MEAN_ANOMALY":280.1464,"EPHEMERIS_TYPE":0,"CLASSIFICATION_TYPE":"U","NORAD_CAT_ID":60024,"ELEMENT_SET_NO":999,"REV_AT_EPOCH":9899,"BSTAR":1.8820228e-5,"MEAN_MOTION_DOT":1.98e-6,"MEAN_MOTION_DDOT":0}]
